{"type": "FeatureCollection", "features": [ {"type": "Feature", "properties": {"norad_id": 30878, "name": "FENGYUN 1C DEB", "group": "fengyun-1c-debris", "lat": 29.01765604553117, "lon": 171.31682779929238, "alt_km": 876.3792872511831, "timestamp": "2025-12-10T21:43:22.367197+00:00", "meta": {"OBJECT_NAME": "FENGYUN 1C DEB", "OBJECT_ID": "1999-025AXQ", "EPOCH": "2025-12-10T11:31:40.099872", "MEAN_MOTION": 14.11878185, "ECCENTRICITY": 0.00400504, "INCLINATION": 98.7208, "RA_OF_ASC_NODE": 346.0196, "ARG_OF_PERICENTER": 301.009, "MEAN_ANOMALY": 211.8141, "EPHEMERIS_TYPE": 0, "CLASSIFICATION_TYPE": "U", "NORAD_CAT_ID": 30878, "ELEMENT_SET_NO": 999, "REV_AT_EPOCH": 96335, "BSTAR": 0.0008727965, "MEAN_MOTION_DOT": 1.563e-05, "MEAN_MOTION_DDOT": 0}, "tle": {"line1": "1 30878U 99025AXQ 25344.48032523  .00001563  00000+0  87280-3 0  9998", "line2": "2 30878  98.7208 346.0196 0040050 301.0090 211.8141 14.11878185963351"}}, "geometry": {"type": "Point", "coordinates": [171.31682779929238, 29.01765604553117]}}, {"type": "Feature", "properties": {"norad_id": 30879, "name": "FENGYUN 1C DEB", "group": "fengyun-1c-debris", "lat": 50.88167468720161, "lon": 32.990376777209946, "alt_km": 797.4513291649828, "timestamp": "2025-12-10T21:43:22.367208+00:00", "meta": {"OBJECT_NAME": "FENGYUN 1C DEB", "OBJECT_ID": "1999-025AXR", "EPOCH": "2025-12-10T08:01:56.935200", "MEAN_MOTION": 14.67100722, "ECCENTRICITY": 0.02034371, "INCLINATION": 99.3511, "RA_OF_ASC_NODE": 200.649, "ARG_OF_PERICENTER": 287.3299, "MEAN_ANOMALY": 70.574, "EPHEMERIS_TYPE": 0, "CLASSIFICATION_TYPE": "U", "NORAD_CAT_ID": 30879, "ELEMENT_SET_NO": 999, "REV_AT_EPOCH": 61904, "BSTAR": 0.0058282981, "MEAN_MOTION_DOT": 0.00044889, "MEAN_MOTION_DDOT": 0}, "tle": {"line1": "1 30879U 99025AXR 25344.33468675  .00044889  00000+0  58283-2 0  9992", "line2": "2 30879  99.3511 200.6490 0203437 287.3299  70.5740 14.67100722619040"}}, "geometry": {"type": "Point", "coordinates": [32.990376777209946, 50.88167468720161]}}, {"type": "Feature", "properties": {"norad_id": 30880, "name": "FENGYUN 1C DEB", "group": "fengyun-1c-debris", "lat": -32.65197643030817, "lon": -128.95192174976054, "alt_km": 815.5003791981244, "timestamp": "2025-12-10T21:43:22.367218+00:00", "meta": {"OBJECT_NAME": "FENGYUN 1C DEB", "OBJECT_ID": "1999-025AXS", "EPOCH": "2025-12-10T10:37:20.140608", "MEAN_MOTION": 14.25576195, "ECCENTRICITY": 0.0022471, "INCLINATION": 98.7944, "RA_OF_ASC_NODE": 56.2775, "ARG_OF_PERICENTER": 113.8784, "MEAN_ANOMALY": 246.4753, "EPHEMERIS_TYPE": 0, "CLASSIFICATION_TYPE": "U", "NORAD_CAT_ID": 30880, "ELEMENT_SET_NO": 999, "REV_AT_EPOCH": 96681, "BSTAR": 0.0019988405, "MEAN_MOTION_DOT": 4.701e-05, "MEAN_MOTION_DDOT": 0}, "tle": {"line1": "1 30880U 99025AXS 25344.44259422  .00004701  00000+0  19988-2 0  9992", "line2": "2 30880  98.7944  56.2775 0022471 113.8784 246.4753 14.25576195966818"}}, "geometry": {"type": "Point", "coordinates": [-128.95192174976054, -32.65197643030817]}}, {"type": "Feature", "properties": {"norad_id": 30882, "name": "FENGYUN 1C DEB", "group": "fengyun-1c-debris", "lat": 19.466268286251083, "lon": 37.411090698126685, "alt_km": 512.5743070576555, "timestamp": "2025-12-10T21:43:22.367228+00:00", "meta": {"OBJECT_NAME": "FENGYUN 1C DEB", "OBJECT_ID": "1999-025AXU", "EPOCH": "2025-12-08T09:52:03.074016", "MEAN_MOTION": 14.86574376, "ECCENTRICITY": 0.01538604, "INCLINATION": 97.9428, "RA_OF_ASC_NODE": 37.7465, "ARG_OF_PERICENTER": 54.94, "MEAN_ANOMALY": 306.6136, "EPHEMERIS_TYPE": 0, "CLASSIFICATION_TYPE": "U", "NORAD_CAT_ID": 30882, "ELEMENT_SET_NO": 999, "REV_AT_EPOCH": 99590, "BSTAR": 0.001081007, "MEAN_MOTION_DOT": 0.00011848, "MEAN_MOTION_DDOT": 0}, "tle": {"line1": "1 30882U 99025AXU 25342.41114669  .00011848  00000+0  10810-2 0  9997", "line2": "2 30882  97.9428  37.7465 0153860  54.9400 306.6136 14.86574376995907"}}, "geometry": {"type": "Point", "coordinates": [37.411090698126685, 19.466268286251083]}}, {"type": "Feature", "properties": {"norad_id": 30883, "name": "FENGYUN 1C DEB", "group": "fengyun-1c-debris", "lat": 25.360450455092725, "lon": -153.894254307805, "alt_km": 808.211059502989, "timestamp": "2025-12-10T21:43:22.367238+00:00", "meta": {"OBJECT_NAME": "FENGYUN 1C DEB", "OBJECT_ID": "1999-025AXV", "EPOCH": "2025-12-08T09:39:11.997216", "MEAN_MOTION": 14.14544388, "ECCENTRICITY": 0.01116431, "INCLINATION": 98.3623, "RA_OF_ASC_NODE": 19.7631, "ARG_OF_PERICENTER": 226.477, "MEAN_ANOMALY": 150.4699, "EPHEMERIS_TYPE": 0, "CLASSIFICATION_TYPE": "U", "NORAD_CAT_ID": 30883, "ELEMENT_SET_NO": 999, "REV_AT_EPOCH": 96856, "BSTAR": 0.00035441488, "MEAN_MOTION_DOT": 6.81e-06, "MEAN_MOTION_DDOT": 0}, "tle": {"line1": "1 30883U 99025AXV 25342.40222219  .00000681  00000+0  35441-3 0  9999", "line2": "2 30883  98.3623  19.7631 0111643 226.4770 150.4699 14.14544388968566"}}, "geometry": {"type": "Point", "coordinates": [-153.894254307805, 25.360450455092725]}}, {"type": "Feature", "properties": {"norad_id": 30884, "name": "FENGYUN 1C DEB", "group": "fengyun-1c-debris", "lat": 78.0706816641133, "lon": -69.24761326059578, "alt_km": 651.1568146099098, "timestamp": "2025-12-10T21:43:22.367249+00:00", "meta": {"OBJECT_NAME": "FENGYUN 1C DEB", "OBJECT_ID": "1999-025AXW", "EPOCH": "2025-12-09T11:07:37.314048", "MEAN_MOTION": 14.73332771, "ECCENTRICITY": 0.00673714, "INCLINATION": 98.8907, "RA_OF_ASC_NODE": 336.9851, "ARG_OF_PERICENTER": 346.1354, "MEAN_ANOMALY": 13.7999, "EPHEMERIS_TYPE": 0, "CLASSIFICATION_TYPE": "U", "NORAD_CAT_ID": 30884, "ELEMENT_SET_NO": 999, "REV_AT_EPOCH": 98613, "BSTAR": 0.0032347053, "MEAN_MOTION_DOT": 0.00021706, "MEAN_MOTION_DDOT": 0}, "tle": {"line1": "1 30884U 99025AXW 25343.46362632  .00021706  00000+0  32347-2 0  9993", "line2": "2 30884  98.8907 336.9851 0067371 346.1354  13.7999 14.73332771986134"}}, "geometry": {"type": "Point", "coordinates": [-69.24761326059578, 78.0706816641133]}}, {"type": "Feature", "properties": {"norad_id": 30885, "name": "FENGYUN 1C DEB", "group": "fengyun-1c-debris", "lat": -73.93316568989351, "lon": -141.19520651226813, "alt_km": 714.8544030518269, "timestamp": "2025-12-10T21:43:22.367259+00:00", "meta": {"OBJECT_NAME": "FENGYUN 1C DEB", "OBJECT_ID": "1999-025AXX", "EPOCH": "2025-12-10T07:59:49.960896", "MEAN_MOTION": 14.49349742, "ECCENTRICITY": 0.0053899, "INCLINATION": 99.0266, "RA_OF_ASC_NODE": 184.6927, "ARG_OF_PERICENTER": 226.5434, "MEAN_ANOMALY": 314.0032, "EPHEMERIS_TYPE": 0, "CLASSIFICATION_TYPE": "U", "NORAD_CAT_ID": 30885, "ELEMENT_SET_NO": 999, "REV_AT_EPOCH": 96942, "BSTAR": 0.0040885, "MEAN_MOTION_DOT": 0.00015893, "MEAN_MOTION_DDOT": 0}, "tle": {"line1": "1 30885U 99025AXX 25344.33321714  .00015893  00000+0  40885-2 0  9993", "line2": "2 30885  99.0266 184.6927 0053899 226.5434 314.0032 14.49349742969425"}}, "geometry": {"type": "Point", "coordinates": [-141.19520651226813, -73.93316568989351]}}, {"type": "Feature", "properties": {"norad_id": 30886, "name": "FENGYUN 1C DEB", "group": "fengyun-1c-debris", "lat": -9.618005313581454, "lon": -120.62573308990306, "alt_km": 802.9078528914433, "timestamp": "2025-12-10T21:43:22.367269+00:00", "meta": {"OBJECT_NAME": "FENGYUN 1C DEB", "OBJECT_ID": "1999-025AXY", "EPOCH": "2025-12-09T23:49:36.789888", "MEAN_MOTION": 14.22748626, "ECCENTRICITY": 0.00361998, "INCLINATION": 99.2086, "RA_OF_ASC_NODE": 236.8459, "ARG_OF_PERICENTER": 41.8144, "MEAN_ANOMALY": 318.5788, "EPHEMERIS_TYPE": 0, "CLASSIFICATION_TYPE": "U", "NORAD_CAT_ID": 30886, "ELEMENT_SET_NO": 999, "REV_AT_EPOCH": 96357, "BSTAR": 0.0025883412, "MEAN_MOTION_DOT": 5.797e-05, "MEAN_MOTION_DDOT": 0}, "tle": {"line1": "1 30886U 99025AXY 25343.99278692  .00005797  00000+0  25883-2 0  9994", "line2": "2 30886  99.2086 236.8459 0036199  41.8144 318.5788 14.22748626963570"}}, "geometry": {"type": "Point", "coordinates": [-120.62573308990306, -9.618005313581454]}}, {"type": "Feature", "properties": {"norad_id": 30887, "name": "FENGYUN 1C DEB", "group": "fengyun-1c-debris", "lat": 9.07851175839792, "lon": -137.85528354131583, "alt_km": 842.296044799702, "timestamp": "2025-12-10T21:43:22.367280+00:00", "meta": {"OBJECT_NAME": "FENGYUN 1C DEB", "OBJECT_ID": "1999-025AXZ", "EPOCH": "2025-12-10T14:15:44.588448", "MEAN_MOTION": 14.44795187, "ECCENTRICITY": 0.02637346, "INCLINATION": 98.369, "RA_OF_ASC_NODE": 40.4903, "ARG_OF_PERICENTER": 294.3463, "MEAN_ANOMALY": 63.0402, "EPHEMERIS_TYPE": 0, "CLASSIFICATION_TYPE": "U", "NORAD_CAT_ID": 30887, "ELEMENT_SET_NO": 999, "REV_AT_EPOCH": 98097, "BSTAR": 0.00096075882, "MEAN_MOTION_DOT": 5.068e-05, "MEAN_MOTION_DDOT": 0}, "tle": {"line1": "1 30887U 99025AXZ 25344.59426607  .00005068  00000+0  96076-3 0  9997", "line2": "2 30887  98.3690  40.4903 0263734 294.3463  63.0402 14.44795187980977"}}, "geometry": {"type": "Point", "coordinates": [-137.85528354131583, 9.07851175839792]}}, {"type": "Feature", "properties": {"norad_id": 30888, "name": "FENGYUN 1C DEB", "group": "fengyun-1c-debris", "lat": 26.308464086562545, "lon": -41.40612032254523, "alt_km": 622.0336085175686, "timestamp": "2025-12-10T21:43:22.367290+00:00", "meta": {"OBJECT_NAME": "FENGYUN 1C DEB", "OBJECT_ID": "1999-025AYA", "EPOCH": "2025-12-09T21:29:17.171232", "MEAN_MOTION": 14.93782302, "ECCENTRICITY": 0.00833611, "INCLINATION": 99.4833, "RA_OF_ASC_NODE": 322.1176, "ARG_OF_PERICENTER": 159.8769, "MEAN_ANOMALY": 200.5764, "EPHEMERIS_TYPE": 0, "CLASSIFICATION_TYPE": "U", "NORAD_CAT_ID": 30888, "ELEMENT_SET_NO": 999, "REV_AT_EPOCH": 99883, "BSTAR": 0.0014823112, "MEAN_MOTION_DOT": 0.00016779, "MEAN_MOTION_DDOT": 0}, "tle": {"line1": "1 30888U 99025AYA 25343.89533763  .00016779  00000+0  14823-2 0  9992", "line2": "2 30888  99.4833 322.1176 0083361 159.8769 200.5764 14.93782302998833"}}, "geometry": {"type": "Point", "coordinates": [-41.40612032254523, 26.308464086562545]}}]}